[{"OBJECT_NAME":"STARLINK-35781","OBJECT_ID":"2025-299J","EPOCH":"2026-03-09T07:15:07.559712","MEAN_MOTION":15.2841751,"ECCENTRICITY":6.167e-5,"INCLINATION":42.9989,"RA_OF_ASC_NODE":171.4742,"ARG_OF_PERICENTER":246.1794,"MEAN_ANOMALY":113.8993,"EPHEMERIS_TYPE":0,"CLASSIFICATION_TYPE":"U","NORAD_CAT_ID":67110,"ELEMENT_SET_NO":999,"REV_AT_EPOCH":1305,"BSTAR":0.00090285523,"MEAN_MOTION_DOT":0.00025312,"MEAN_MOTION_DDOT":0},{"OBJECT_NAME":"FENGYUN 1C DEB","OBJECT_ID":"1999-025DCL","EPOCH":"2026-03-08T01:32:38.043744","MEAN_MOTION":14.80481308,"ECCENTRICITY":0.0218035,"INCLINATION":98.8149,"RA_OF_ASC_NODE":16.0796,"ARG_OF_PERICENTER":161.8742,"MEAN_ANOMALY":199.0399,"EPHEMERIS_TYPE":0,"CLASSIFICATION_TYPE":"U","NORAD_CAT_ID":33603,"ELEMENT_SET_NO":999,"REV_AT_EPOCH":119,"BSTAR":0.0001936534,"MEAN_MOTION_DOT":2.149e-5,"MEAN_MOTION_DDOT":0}]
